{
  "type": "FeatureCollection",
  "features": [
    {
      "type": "Feature",
      "properties": {
        "norad_id": 32376,
        "name": "COSMO-SKYMED 2",
        "group": "resource",
        "lat": 40.820548049237445,
        "lon": 152.24696199580376,
        "alt_km": 618.6032549796255,
        "timestamp": "2025-12-03T15:48:02.758320+00:00",
        "meta_object_name": "COSMO-SKYMED 2",
        "meta_object_id": "2007-059A",
        "meta_epoch": "2025-12-03T09:08:02.580288",
        "meta_mean_motion": 14.82146809,
        "meta_eccentricity": 0.00015296,
        "meta_inclination": 97.8806,
        "meta_ra_of_asc_node": 158.8451,
        "meta_arg_of_pericenter": 88.2951,
        "meta_mean_anomaly": 271.8438,
        "meta_ephemeris_type": 0,
        "meta_classification_type": "U",
        "meta_norad_cat_id": 32376,
        "meta_element_set_no": 999,
        "meta_rev_at_epoch": 97299,
        "meta_bstar": 0.00012524223,
        "meta_mean_motion_dot": 9.45e-06,
        "meta_mean_motion_ddot": 0,
        "tle_line1": "1 32376U 07059A   25337.38058542  .00000945  00000+0  12524-3 0  9991",
        "tle_line2": "2 32376  97.8806 158.8451 0001529  88.2951 271.8438 14.82146809972995"
      },
      "geometry": {
        "type": "Point",
        "coordinates": [
          152.24696199580376,
          40.820548049237445
        ]
      }
    },
    {
      "type": "Feature",
      "properties": {
        "norad_id": 32382,
        "name": "RADARSAT-2",
        "group": "resource",
        "lat": -71.15162815389553,
        "lon": 136.13203475049238,
        "alt_km": 799.7954738517283,
        "timestamp": "2025-12-03T15:48:02.758330+00:00",
        "meta_object_name": "RADARSAT-2",
        "meta_object_id": "2007-061A",
        "meta_epoch": "2025-12-03T07:54:12.466944",
        "meta_mean_motion": 14.29983595,
        "meta_eccentricity": 0.00010802,
        "meta_inclination": 98.58,
        "meta_ra_of_asc_node": 342.0562,
        "meta_arg_of_pericenter": 90.9972,
        "meta_mean_anomaly": 269.1334,
        "meta_ephemeris_type": 0,
        "meta_classification_type": "U",
        "meta_norad_cat_id": 32382,
        "meta_element_set_no": 999,
        "meta_rev_at_epoch": 93796,
        "meta_bstar": 7.2950649e-05,
        "meta_mean_motion_dot": 1.44e-06,
        "meta_mean_motion_ddot": 0,
        "tle_line1": "1 32382U 07061A   25337.32931096  .00000144  00000+0  72951-4 0  9991",
        "tle_line2": "2 32382  98.5800 342.0562 0001080  90.9972 269.1334 14.29983595937964"
      },
      "geometry": {
        "type": "Point",
        "coordinates": [
          136.13203475049238,
          -71.15162815389553
        ]
      }
    },
    {
      "type": "Feature",
      "properties": {
        "norad_id": 32783,
        "name": "CARTOSAT-2A",
        "group": "resource",
        "lat": -71.77648464866729,
        "lon": 52.349858675994376,
        "alt_km": 642.5368518665327,
        "timestamp": "2025-12-03T15:48:02.758339+00:00",
        "meta_object_name": "CARTOSAT-2A",
        "meta_object_id": "2008-021A",
        "meta_epoch": "2025-12-03T08:00:47.761632",
        "meta_mean_motion": 14.78907984,
        "meta_eccentricity": 0.00124969,
        "meta_inclination": 97.7944,
        "meta_ra_of_asc_node": 27.4508,
        "meta_arg_of_pericenter": 34.0082,
        "meta_mean_anomaly": 326.1928,
        "meta_ephemeris_type": 0,
        "meta_classification_type": "U",
        "meta_norad_cat_id": 32783,
        "meta_element_set_no": 999,
        "meta_rev_at_epoch": 94985,
        "meta_bstar": 0.00019469108,
        "meta_mean_motion_dot": 1.386e-05,
        "meta_mean_motion_ddot": 0,
        "tle_line1": "1 32783U 08021A   25337.33388613  .00001386  00000+0  19469-3 0  9998",
        "tle_line2": "2 32783  97.7944  27.4508 0012496  34.0082 326.1928 14.78907984949853"
      },
      "geometry": {
        "type": "Point",
        "coordinates": [
          52.349858675994376,
          -71.77648464866729
        ]
      }
    },
    {
      "type": "Feature",
      "properties": {
        "norad_id": 33320,
        "name": "HUANJING 1A (HJ-1A)",
        "group": "resource",
        "lat": 6.606546615745578,
        "lon": -34.555625562812594,
        "alt_km": 612.73839708593,
        "timestamp": "2025-12-03T15:48:02.758349+00:00",
        "meta_object_name": "HUANJING 1A (HJ-1A)",
        "meta_object_id": "2008-041A",
        "meta_epoch": "2025-12-03T07:40:33.881376",
        "meta_mean_motion": 14.8334559,
        "meta_eccentricity": 0.00206513,
        "meta_inclination": 97.6536,
        "meta_ra_of_asc_node": 326.0124,
        "meta_arg_of_pericenter": 63.5632,
        "meta_mean_anomaly": 296.7698,
        "meta_ephemeris_type": 0,
        "meta_classification_type": "U",
        "meta_norad_cat_id": 33320,
        "meta_element_set_no": 999,
        "meta_rev_at_epoch": 92936,
        "meta_bstar": 0.00027120367,
        "meta_mean_motion_dot": 2.179e-05,
        "meta_mean_motion_ddot": 0,
        "tle_line1": "1 33320U 08041A   25337.31983659  .00002179  00000+0  27120-3 0  9991",
        "tle_line2": "2 33320  97.6536 326.0124 0020651  63.5632 296.7698 14.83345590929364"
      },
      "geometry": {
        "type": "Point",
        "coordinates": [
          -34.555625562812594,
          6.606546615745578
        ]
      }
    },
    {
      "type": "Feature",
      "properties": {
        "norad_id": 33321,
        "name": "HUANJING 1B (HJ-1B)",
        "group": "resource",
        "lat": -65.82187768443835,
        "lon": 132.66204009069142,
        "alt_km": 648.9603279398079,
        "timestamp": "2025-12-03T15:48:02.758358+00:00",
        "meta_object_name": "HUANJING 1B (HJ-1B)",
        "meta_object_id": "2008-041B",
        "meta_epoch": "2025-12-03T08:12:54.611136",
        "meta_mean_motion": 14.8278147,
        "meta_eccentricity": 0.00381591,
        "meta_inclination": 97.6396,
        "meta_ra_of_asc_node": 329.7554,
        "meta_arg_of_pericenter": 105.4599,
        "meta_mean_anomaly": 255.0835,
        "meta_ephemeris_type": 0,
        "meta_classification_type": "U",
        "meta_norad_cat_id": 33321,
        "meta_element_set_no": 999,
        "meta_rev_at_epoch": 92938,
        "meta_bstar": 0.000216911,
        "meta_mean_motion_dot": 1.724e-05,
        "meta_mean_motion_ddot": 0,
        "tle_line1": "1 33321U 08041B   25337.34229874  .00001724  00000+0  21691-3 0  9999",
        "tle_line2": "2 33321  97.6396 329.7554 0038159 105.4599 255.0835 14.82781470929389"
      },
      "geometry": {
        "type": "Point",
        "coordinates": [
          132.66204009069142,
          -65.82187768443835
        ]
      }
    },
    {
      "type": "Feature",
      "properties": {
        "norad_id": 33331,
        "name": "GEOEYE 1",
        "group": "resource",
        "lat": 77.00026113246065,
        "lon": -92.71053069292518,
        "alt_km": 672.1858824745559,
        "timestamp": "2025-12-03T15:48:02.758368+00:00",
        "meta_object_name": "GEOEYE 1",
        "meta_object_id": "2008-042A",
        "meta_epoch": "2025-12-03T07:08:52.797120",
        "meta_mean_motion": 14.64791324,
        "meta_eccentricity": 0.00029896,
        "meta_inclination": 98.1264,
        "meta_ra_of_asc_node": 48.6961,
        "meta_arg_of_pericenter": 317.7207,
        "meta_mean_anomaly": 42.3765,
        "meta_ephemeris_type": 0,
        "meta_classification_type": "U",
        "meta_norad_cat_id": 33331,
        "meta_element_set_no": 999,
        "meta_rev_at_epoch": 92147,
        "meta_bstar": 0.00019236665,
        "meta_mean_motion_dot": 9.78e-06,
        "meta_mean_motion_ddot": 0,
        "tle_line1": "1 33331U 08042A   25337.29783330  .00000978  00000+0  19237-3 0  9990",
        "tle_line2": "2 33331  98.1264  48.6961 0002989 317.7207  42.3765 14.64791324921475"
      },
      "geometry": {
        "type": "Point",
        "coordinates": [
          -92.71053069292518,
          77.00026113246065
        ]
      }
    },
    {
      "type": "Feature",
      "properties": {
        "norad_id": 33396,
        "name": "THEOS",
        "group": "resource",
        "lat": -23.611488263296323,
        "lon": 39.80302518937835,
        "alt_km": 830.8964278614585,
        "timestamp": "2025-12-03T15:48:02.758377+00:00",
        "meta_object_name": "THEOS",
        "meta_object_id": "2008-049A",
        "meta_epoch": "2025-12-03T09:08:56.765184",
        "meta_mean_motion": 14.2009314,
        "meta_eccentricity": 0.00010901,
        "meta_inclination": 98.5881,
        "meta_ra_of_asc_node": 35.7464,
        "meta_arg_of_pericenter": 100.4808,
        "meta_mean_anomaly": 259.6492,
        "meta_ephemeris_type": 0,
        "meta_classification_type": "U",
        "meta_norad_cat_id": 33396,
        "meta_element_set_no": 999,
        "meta_rev_at_epoch": 89017,
        "meta_bstar": 7.298379e-05,
        "meta_mean_motion_dot": 1.13e-06,
        "meta_mean_motion_ddot": 0,
        "tle_line1": "1 33396U 08049A   25337.38121256  .00000113  00000+0  72984-4 0  9991",
        "tle_line2": "2 33396  98.5881  35.7464 0001090 100.4808 259.6492 14.20093140890171"
      },
      "geometry": {
        "type": "Point",
        "coordinates": [
          39.80302518937835,
          -23.611488263296323
        ]
      }
    }
  ]
}